{
  "links" : {
    "next" : "https://api.nasa.gov/neo/rest/v1/feed?start_date=2000-03-23&end_date=2000-03-23&detailed=true&api_key=t0TVs3DtDT2H8Oy2Zy8m2eVrNsAVKAexjcZXUckd",
    "prev" : "https://api.nasa.gov/neo/rest/v1/feed?start_date=2000-03-21&end_date=2000-03-21&detailed=true&api_key=t0TVs3DtDT2H8Oy2Zy8m2eVrNsAVKAexjcZXUckd",
    "self" : "https://api.nasa.gov/neo/rest/v1/feed?start_date=2000-03-22&end_date=2000-03-22&detailed=true&api_key=t0TVs3DtDT2H8Oy2Zy8m2eVrNsAVKAexjcZXUckd"
  },
  "element_count" : 6,
  "near_earth_objects" : {
    "2000-03-22" : [ {
      "links" : {
        "self" : "https://api.nasa.gov/neo/rest/v1/neo/2307918?api_key=t0TVs3DtDT2H8Oy2Zy8m2eVrNsAVKAexjcZXUckd"
      },
      "neo_reference_id" : "2307918",
      "name" : "307918 (2004 EU9)",
      "nasa_jpl_url" : "http://ssd.jpl.nasa.gov/sbdb.cgi?sstr=2307918",
      "absolute_magnitude_h" : 18.9,
      "estimated_diameter" : {
        "kilometers" : {
          "estimated_diameter_min" : 0.4411182,
          "estimated_diameter_max" : 0.9863702813
        },
        "meters" : {
          "estimated_diameter_min" : 441.1181999969,
          "estimated_diameter_max" : 986.3702813054
        },
        "miles" : {
          "estimated_diameter_min" : 0.2740980571,
          "estimated_diameter_max" : 0.6129018881
        },
        "feet" : {
          "estimated_diameter_min" : 1447.2382352778,
          "estimated_diameter_max" : 3236.1230737181
        }
      },
      "is_potentially_hazardous_asteroid" : false,
      "close_approach_data" : [ {
        "close_approach_date" : "2000-03-22",
        "epoch_date_close_approach" : 953712000000,
        "relative_velocity" : {
          "kilometers_per_second" : "16.1613106323",
          "kilometers_per_hour" : "58180.7182761155",
          "miles_per_hour" : "36151.2357532896"
        },
        "miss_distance" : {
          "astronomical" : "0.4121438064",
          "lunar" : "160.3239440918",
          "kilometers" : "61655836",
          "miles" : "38311160"
        },
        "orbiting_body" : "Earth"
      } ],
      "orbital_data" : {
        "orbit_id" : "68",
        "orbit_determination_date" : "2017-04-06 09:23:59",
        "orbit_uncertainty" : "0",
        "minimum_orbit_intersection" : ".16863",
        "jupiter_tisserand_invariant" : "6.534",
        "epoch_osculation" : "2458000.5",
        "eccentricity" : ".5053015262502338",
        "semi_major_axis" : ".8804148130852401",
        "inclination" : "28.58532296576249",
        "ascending_node_longitude" : "161.1057118127949",
        "orbital_period" : "301.7376046546292",
        "perihelion_distance" : ".4355398642999539",
        "perihelion_argument" : "202.4088884278374",
        "aphelion_distance" : "1.325289761870526",
        "perihelion_time" : "2458104.143835426860",
        "mean_anomaly" : "236.3436171756681",
        "mean_motion" : "1.193089606487923",
        "equinox" : "J2000"
      }
    }, {
      "links" : {
        "self" : "https://api.nasa.gov/neo/rest/v1/neo/3011573?api_key=t0TVs3DtDT2H8Oy2Zy8m2eVrNsAVKAexjcZXUckd"
      },
      "neo_reference_id" : "3011573",
      "name" : "(1998 EP4)",
      "nasa_jpl_url" : "http://ssd.jpl.nasa.gov/sbdb.cgi?sstr=3011573",
      "absolute_magnitude_h" : 21.5,
      "estimated_diameter" : {
        "kilometers" : {
          "estimated_diameter_min" : 0.1332155667,
          "estimated_diameter_max" : 0.2978790628
        },
        "meters" : {
          "estimated_diameter_min" : 133.2155666981,
          "estimated_diameter_max" : 297.8790627982
        },
        "miles" : {
          "estimated_diameter_min" : 0.0827762899,
          "estimated_diameter_max" : 0.1850934111
        },
        "feet" : {
          "estimated_diameter_min" : 437.0589598459,
          "estimated_diameter_max" : 977.2935443908
        }
      },
      "is_potentially_hazardous_asteroid" : false,
      "close_approach_data" : [ {
        "close_approach_date" : "2000-03-22",
        "epoch_date_close_approach" : 953712000000,
        "relative_velocity" : {
          "kilometers_per_second" : "20.3378794557",
          "kilometers_per_hour" : "73216.3660403828",
          "miles_per_hour" : "45493.8025543701"
        },
        "miss_distance" : {
          "astronomical" : "0.3135885584",
          "lunar" : "121.9859466553",
          "kilometers" : "46912180",
          "miles" : "29149878"
        },
        "orbiting_body" : "Earth"
      } ],
      "orbital_data" : {
        "orbit_id" : "13",
        "orbit_determination_date" : "2017-04-06 09:17:53",
        "orbit_uncertainty" : "2",
        "minimum_orbit_intersection" : ".0626509",
        "jupiter_tisserand_invariant" : "4.311",
        "epoch_osculation" : "2458000.5",
        "eccentricity" : ".4410124998133869",
        "semi_major_axis" : "1.559913816679586",
        "inclination" : "7.192529174294005",
        "ascending_node_longitude" : "352.8300268291207",
        "orbital_period" : "711.6219477010926",
        "perihelion_distance" : ".8719723248922805",
        "perihelion_argument" : "266.3818411867661",
        "aphelion_distance" : "2.247855308466892",
        "perihelion_time" : "2458076.006229003398",
        "mean_anomaly" : "321.8024113378794",
        "mean_motion" : ".5058865893090937",
        "equinox" : "J2000"
      }
    }, {
      "links" : {
        "self" : "https://api.nasa.gov/neo/rest/v1/neo/3117468?api_key=t0TVs3DtDT2H8Oy2Zy8m2eVrNsAVKAexjcZXUckd"
      },
      "neo_reference_id" : "3117468",
      "name" : "(2002 FT6)",
      "nasa_jpl_url" : "http://ssd.jpl.nasa.gov/sbdb.cgi?sstr=3117468",
      "absolute_magnitude_h" : 22.5,
      "estimated_diameter" : {
        "kilometers" : {
          "estimated_diameter_min" : 0.0840533402,
          "estimated_diameter_max" : 0.1879489824
        },
        "meters" : {
          "estimated_diameter_min" : 84.0533402073,
          "estimated_diameter_max" : 187.9489824394
        },
        "miles" : {
          "estimated_diameter_min" : 0.0522283081,
          "estimated_diameter_max" : 0.1167860472
        },
        "feet" : {
          "estimated_diameter_min" : 275.7655606856,
          "estimated_diameter_max" : 616.6305395464
        }
      },
      "is_potentially_hazardous_asteroid" : false,
      "close_approach_data" : [ {
        "close_approach_date" : "2000-03-22",
        "epoch_date_close_approach" : 953712000000,
        "relative_velocity" : {
          "kilometers_per_second" : "20.4774708872",
          "kilometers_per_hour" : "73718.8951938271",
          "miles_per_hour" : "45806.05462752"
        },
        "miss_distance" : {
          "astronomical" : "0.2098363823",
          "lunar" : "81.6263504028",
          "kilometers" : "31391076",
          "miles" : "19505510"
        },
        "orbiting_body" : "Earth"
      } ],
      "orbital_data" : {
        "orbit_id" : "22",
        "orbit_determination_date" : "2017-06-21 06:17:20",
        "orbit_uncertainty" : "1",
        "minimum_orbit_intersection" : ".0413485",
        "jupiter_tisserand_invariant" : "6.026",
        "epoch_osculation" : "2458000.5",
        "eccentricity" : ".462699943687126",
        "semi_major_axis" : ".9884238521030382",
        "inclination" : "9.488402611056026",
        "ascending_node_longitude" : "188.5128520742066",
        "orbital_period" : "358.9328872268388",
        "perihelion_distance" : ".5310801913959503",
        "perihelion_argument" : "226.7025553557057",
        "aphelion_distance" : "1.445767512810126",
        "perihelion_time" : "2458025.544584674616",
        "mean_anomaly" : "334.8809574053776",
        "mean_motion" : "1.00297301476442",
        "equinox" : "J2000"
      }
    } ]
  }
}